ONEWEB-0417             
1 50492U 21132Z   25258.35395822  .00000057  00000+0  11262-3 0  9994
2 50492  87.9194  30.0387 0001970  98.8360 261.2995 13.18688440185384
ONEWEB-0418             
1 50493U 21132AA  25257.83260550 -.00000070  00000+0 -21144-3 0  9993
2 50493  87.9189  30.1280 0002228  99.9573 260.1811 13.18687718185378
ONEWEB-0419             
1 50494U 21132AB  25258.60965094  .00000057  00000+0  11090-3 0  9997
2 50494  87.9190  29.9742 0001946 106.7998 253.3348 13.18687705185391
ONEWEB-0420             
1 50495U 21132AC  25258.34736237  .00000082  00000+0  17504-3 0  9998
2 50495  87.9190  30.0369 0001388  98.1886 261.9404 13.18687658185351
ONEWEB-0421             
1 50496U 21132AD  25258.11315093  .00000045  00000+0  81834-4 0  9994
2 50496  87.9191  30.0769 0001781  87.6481 272.4856 13.18685099185364
ONEWEB-0424             
1 50497U 21132AE  25258.60469718  .00000060  00000+0  11855-3 0  9995
2 50497  87.9194  29.9740 0001923 110.5190 249.6148 13.18686508185451
ONEWEB-0426             
1 50498U 21132AF  25258.64097959  .00000038  00000+0  63873-4 0  9997
2 50498  87.9190  29.9591 0002272  84.0633 276.0758 13.18683212185402
ONEWEB-0427             
1 50499U 21132AG  25258.60304711 -.00000055  00000+0 -17154-3 0  9992
2 50499  87.9190  29.9559 0001933  99.5025 260.6326 13.18685705185427
ONEWEB-0429             
1 50500U 21132AH  25258.36220482  .00000171  00000+0  40022-3 0  9997
2 50500  87.9192  30.0340 0001528  99.3712 260.7593 13.18690193185361
ONEWEB-0430             
1 50501U 21132AJ  25258.35066298  .00000097  00000+0  21386-3 0  9999
2 50501  87.9192  30.0306 0001653 107.5233 252.6080 13.18687797185405
ONEWEB-0432             
1 50502U 21132AK  25258.60978264  .00000061  00000+0  12267-3 0  9992
2 50502  87.9187  29.9567 0002562 110.5309 249.6098 13.18690864185396
ONEWEB-0440             
1 50503U 21132AL  25258.59809452  .00000023  00000+0  24661-4 0  9993
2 50503  87.9194  29.9708 0001540  84.6901 275.4406 13.18685312185387
ONEWEB-0450             
1 50504U 21132AM  25258.59164231  .00000136  00000+0  31290-3 0  9993
2 50504  87.9191  29.9971 0001481 103.1689 256.9608 13.18687982185418
ONEWEB-0410             
1 51622U 22012A   25258.48021983  .00000065  00000+0  13539-3 0  9994
2 51622  87.9051  60.4814 0003166  86.6192 273.5302 13.17647552177524
ONEWEB-0411             
1 51623U 22012B   25258.58414477  .00000001  00000+0 -32628-4 0  9992
2 51623  87.8742  91.0285 0001474 106.1989 253.9300 13.10375716173322
ONEWEB-0415             
1 51624U 22012C   25258.58081708 -.00000137  00000+0 -42770-3 0  9999
2 51624  87.8740  91.0315 0001565  96.7123 263.4183 13.10376099173320
ONEWEB-0416             
1 51625U 22012D   25258.59244953  .00000436  00000+0  12132-2 0  9992
2 51625  87.8742  91.0491 0001694  88.1391 271.9930 13.10376458173360
