[{"OBJECT_NAME":"ONEWEB-0417","OBJECT_ID":"2021-132Z","EPOCH":"2025-09-15T08:29:41.990208","MEAN_MOTION":13.1868844,"ECCENTRICITY":0.00019703,"INCLINATION":87.9194,"RA_OF_ASC_NODE":30.0387,"ARG_OF_PERICENTER":98.836,"MEAN_ANOMALY":261.2995,"EPHEMERIS_TYPE":0,"CLASSIFICATION_TYPE":"U","NORAD_CAT_ID":50492,"ELEMENT_SET_NO":999,"REV_AT_EPOCH":18538,"BSTAR":0.00011261972,"MEAN_MOTION_DOT":5.7e-7,"MEAN_MOTION_DDOT":0},{"OBJECT_NAME":"ONEWEB-0418","OBJECT_ID":"2021-132AA","EPOCH":"2025-09-14T19:58:57.115200","MEAN_MOTION":13.18687718,"ECCENTRICITY":0.00022288,"INCLINATION":87.9189,"RA_OF_ASC_NODE":30.128,"ARG_OF_PERICENTER":99.9573,"MEAN_ANOMALY":260.1811,"EPHEMERIS_TYPE":0,"CLASSIFICATION_TYPE":"U","NORAD_CAT_ID":50493,"ELEMENT_SET_NO":999,"REV_AT_EPOCH":18537,"BSTAR":-0.00021143631,"MEAN_MOTION_DOT":-7.0e-7,"MEAN_MOTION_DDOT":0},{"OBJECT_NAME":"ONEWEB-0419","OBJECT_ID":"2021-132AB","EPOCH":"2025-09-15T14:37:53.841216","MEAN_MOTION":13.18687705,"ECCENTRICITY":0.00019466,"INCLINATION":87.919,"RA_OF_ASC_NODE":29.9742,"ARG_OF_PERICENTER":106.7998,"MEAN_ANOMALY":253.3348,"EPHEMERIS_TYPE":0,"CLASSIFICATION_TYPE":"U","NORAD_CAT_ID":50494,"ELEMENT_SET_NO":999,"REV_AT_EPOCH":18539,"BSTAR":0.00011090311,"MEAN_MOTION_DOT":5.7e-7,"MEAN_MOTION_DDOT":0},{"OBJECT_NAME":"ONEWEB-0420","OBJECT_ID":"2021-132AC","EPOCH":"2025-09-15T08:20:12.108768","MEAN_MOTION":13.18687658,"ECCENTRICITY":0.00013884,"INCLINATION":87.919,"RA_OF_ASC_NODE":30.0369,"ARG_OF_PERICENTER":98.1886,"MEAN_ANOMALY":261.9404,"EPHEMERIS_TYPE":0,"CLASSIFICATION_TYPE":"U","NORAD_CAT_ID":50495,"ELEMENT_SET_NO":999,"REV_AT_EPOCH":18535,"BSTAR":0.00017504145,"MEAN_MOTION_DOT":8.2e-7,"MEAN_MOTION_DDOT":0},{"OBJECT_NAME":"ONEWEB-0421","OBJECT_ID":"2021-132AD","EPOCH":"2025-09-15T02:42:56.240352","MEAN_MOTION":13.18685099,"ECCENTRICITY":0.00017813,"INCLINATION":87.9191,"RA_OF_ASC_NODE":30.0769,"ARG_OF_PERICENTER":87.6481,"MEAN_ANOMALY":272.4856,"EPHEMERIS_TYPE":0,"CLASSIFICATION_TYPE":"U","NORAD_CAT_ID":50496,"ELEMENT_SET_NO":999,"REV_AT_EPOCH":18536,"BSTAR":8.183398e-5,"MEAN_MOTION_DOT":4.5e-7,"MEAN_MOTION_DDOT":0},{"OBJECT_NAME":"ONEWEB-0424","OBJECT_ID":"2021-132AE","EPOCH":"2025-09-15T14:30:45.836352","MEAN_MOTION":13.18686508,"ECCENTRICITY":0.00019232,"INCLINATION":87.9194,"RA_OF_ASC_NODE":29.974,"ARG_OF_PERICENTER":110.519,"MEAN_ANOMALY":249.6148,"EPHEMERIS_TYPE":0,"CLASSIFICATION_TYPE":"U","NORAD_CAT_ID":50497,"ELEMENT_SET_NO":999,"REV_AT_EPOCH":18545,"BSTAR":0.0001185464,"MEAN_MOTION_DOT":6.0e-7,"MEAN_MOTION_DDOT":0},{"OBJECT_NAME":"ONEWEB-0426","OBJECT_ID":"2021-132AF","EPOCH":"2025-09-15T15:23:00.636576","MEAN_MOTION":13.18683212,"ECCENTRICITY":0.00022726,"INCLINATION":87.919,"RA_OF_ASC_NODE":29.9591,"ARG_OF_PERICENTER":84.0633,"MEAN_ANOMALY":276.0758,"EPHEMERIS_TYPE":0,"CLASSIFICATION_TYPE":"U","NORAD_CAT_ID":50498,"ELEMENT_SET_NO":999,"REV_AT_EPOCH":18540,"BSTAR":6.3872917e-5,"MEAN_MOTION_DOT":3.8e-7,"MEAN_MOTION_DDOT":0},{"OBJECT_NAME":"ONEWEB-0427","OBJECT_ID":"2021-132AG","EPOCH":"2025-09-15T14:28:23.270304","MEAN_MOTION":13.18685705,"ECCENTRICITY":0.00019335,"INCLINATION":87.919,"RA_OF_ASC_NODE":29.9559,"ARG_OF_PERICENTER":99.5025,"MEAN_ANOMALY":260.6326,"EPHEMERIS_TYPE":0,"CLASSIFICATION_TYPE":"U","NORAD_CAT_ID":50499,"ELEMENT_SET_NO":999,"REV_AT_EPOCH":18542,"BSTAR":-0.00017153746,"MEAN_MOTION_DOT":-5.5e-7,"MEAN_MOTION_DDOT":0},{"OBJECT_NAME":"ONEWEB-0429","OBJECT_ID":"2021-132AH","EPOCH":"2025-09-15T08:41:34.496448","MEAN_MOTION":13.18690193,"ECCENTRICITY":0.00015287,"INCLINATION":87.9192,"RA_OF_ASC_NODE":30.034,"ARG_OF_PERICENTER":99.3712,"MEAN_ANOMALY":260.7593,"EPHEMERIS_TYPE":0,"CLASSIFICATION_TYPE":"U","NORAD_CAT_ID":50500,"ELEMENT_SET_NO":999,"REV_AT_EPOCH":18536,"BSTAR":0.00040022404,"MEAN_MOTION_DOT":1.71e-6,"MEAN_MOTION_DDOT":0},{"OBJECT_NAME":"ONEWEB-0430","OBJECT_ID":"2021-132AJ","EPOCH":"2025-09-15T08:24:57.281472","MEAN_MOTION":13.18687797,"ECCENTRICITY":0.00016536,"INCLINATION":87.9192,"RA_OF_ASC_NODE":30.0306,"ARG_OF_PERICENTER":107.5233,"MEAN_ANOMALY":252.608,"EPHEMERIS_TYPE":0,"CLASSIFICATION_TYPE":"U","NORAD_CAT_ID":50501,"ELEMENT_SET_NO":999,"REV_AT_EPOCH":18540,"BSTAR":0.00021386322,"MEAN_MOTION_DOT":9.7e-7,"MEAN_MOTION_DDOT":0},{"OBJECT_NAME":"ONEWEB-0432","OBJECT_ID":"2021-132AK","EPOCH":"2025-09-15T14:38:05.220096","MEAN_MOTION":13.18690864,"ECCENTRICITY":0.00025628,"INCLINATION":87.9187,"RA_OF_ASC_NODE":29.9567,"ARG_OF_PERICENTER":110.5309,"MEAN_ANOMALY":249.6098,"EPHEMERIS_TYPE":0,"CLASSIFICATION_TYPE":"U","NORAD_CAT_ID":50502,"ELEMENT_SET_NO":999,"REV_AT_EPOCH":18539,"BSTAR":0.00012267193,"MEAN_MOTION_DOT":6.1e-7,"MEAN_MOTION_DDOT":0},{"OBJECT_NAME":"ONEWEB-0440","OBJECT_ID":"2021-132AL","EPOCH":"2025-09-15T14:21:15.366528","MEAN_MOTION":13.18685312,"ECCENTRICITY":0.000154,"INCLINATION":87.9194,"RA_OF_ASC_NODE":29.9708,"ARG_OF_PERICENTER":84.6901,"MEAN_ANOMALY":275.4406,"EPHEMERIS_TYPE":0,"CLASSIFICATION_TYPE":"U","NORAD_CAT_ID":50503,"ELEMENT_SET_NO":999,"REV_AT_EPOCH":18538,"BSTAR":2.4660934e-5,"MEAN_MOTION_DOT":2.3e-7,"MEAN_MOTION_DDOT":0},{"OBJECT_NAME":"ONEWEB-0450","OBJECT_ID":"2021-132AM","EPOCH":"2025-09-15T14:11:57.895584","MEAN_MOTION":13.18687982,"ECCENTRICITY":0.0001481,"INCLINATION":87.9191,"RA_OF_ASC_NODE":29.9971,"ARG_OF_PERICENTER":103.1689,"MEAN_ANOMALY":256.9608,"EPHEMERIS_TYPE":0,"CLASSIFICATION_TYPE":"U","NORAD_CAT_ID":50504,"ELEMENT_SET_NO":999,"REV_AT_EPOCH":18541,"BSTAR":0.00031290251,"MEAN_MOTION_DOT":1.36e-6,"MEAN_MOTION_DDOT":0},{"OBJECT_NAME":"ONEWEB-0410","OBJECT_ID":"2022-012A","EPOCH":"2025-09-15T11:31:30.993312","MEAN_MOTION":13.17647552,"ECCENTRICITY":0.00031664,"INCLINATION":87.9051,"RA_OF_ASC_NODE":60.4814,"ARG_OF_PERICENTER":86.6192,"MEAN_ANOMALY":273.5302,"EPHEMERIS_TYPE":0,"CLASSIFICATION_TYPE":"U","NORAD_CAT_ID":51622,"ELEMENT_SET_NO":999,"REV_AT_EPOCH":17752,"BSTAR":0.00013538727,"MEAN_MOTION_DOT":6.5e-7,"MEAN_MOTION_DDOT":0},{"OBJECT_NAME":"ONEWEB-0411","OBJECT_ID":"2022-012B","EPOCH":"2025-09-15T14:01:10.108128","MEAN_MOTION":13.10375716,"ECCENTRICITY":0.00014747,"INCLINATION":87.8742,"RA_OF_ASC_NODE":91.0285,"ARG_OF_PERICENTER":106.1989,"MEAN_ANOMALY":253.93,"EPHEMERIS_TYPE":0,"CLASSIFICATION_TYPE":"U","NORAD_CAT_ID":51623,"ELEMENT_SET_NO":999,"REV_AT_EPOCH":17332,"BSTAR":-3.2627664e-5,"MEAN_MOTION_DOT":1.0e-8,"MEAN_MOTION_DDOT":0},{"OBJECT_NAME":"ONEWEB-0415","OBJECT_ID":"2022-012C","EPOCH":"2025-09-15T13:56:22.595712","MEAN_MOTION":13.10376099,"ECCENTRICITY":0.00015656,"INCLINATION":87.874,"RA_OF_ASC_NODE":91.0315,"ARG_OF_PERICENTER":96.7123,"MEAN_ANOMALY":263.4183,"EPHEMERIS_TYPE":0,"CLASSIFICATION_TYPE":"U","NORAD_CAT_ID":51624,"ELEMENT_SET_NO":999,"REV_AT_EPOCH":17332,"BSTAR":-0.00042769502,"MEAN_MOTION_DOT":-1.37e-6,"MEAN_MOTION_DDOT":0},{"OBJECT_NAME":"ONEWEB-0416","OBJECT_ID":"2022-012D","EPOCH":"2025-09-15T14:13:07.639392","MEAN_MOTION":13.10376458,"ECCENTRICITY":0.00016941,"INCLINATION":87.8742,"RA_OF_ASC_NODE":91.0491,"ARG_OF_PERICENTER":88.1391,"MEAN_ANOMALY":271.993,"EPHEMERIS_TYPE":0,"CLASSIFICATION_TYPE":"U","NORAD_CAT_ID":51625,"ELEMENT_SET_NO":999,"REV_AT_EPOCH":17336,"BSTAR":0.0012131506,"MEAN_MOTION_DOT":4.36e-6,"MEAN_MOTION_DDOT":0}]
